{
  "norad_id": 69023,
  "name": "CAS500-2 RIDESHARE OBJECT AV",
  "history": [
    {
      "epoch": "2026-05-09T15:42:35.648928Z",
      "apogee_km": 510.13504018246294,
      "perigee_km": 503.59841764223256,
      "latitude_deg": -1.5818859827297815e-05,
      "longitude_deg": -74.94648421671741,
      "height_km": 511.3448885667729,
      "semi_major_axis_km": 6885.0037289123475,
      "eccentricity": 0.0004747,
      "inclination_deg": 97.4102,
      "raan_deg": 28.1711,
      "arg_perigee_deg": 115.2806,
      "mean_anomaly_deg": 244.8921,
      "mean_motion_rev_day": 15.1966021
    }
  ]
}