CAS500-2 RIDESHARE OBJE*
1 69023U 26100AV  26129.65457928  .00005469  00000+0  25953-3 0  9995
2 69023  97.4102  28.1711 0004746 115.2806 244.8921 15.19660210   954
